[{"OBJECT_NAME":"IRIDIUM 153","OBJECT_ID":"2017-083J","EPOCH":"2026-03-09T17:37:27.321600","MEAN_MOTION":14.3421931,"ECCENTRICITY":0.00020663,"INCLINATION":86.4011,"RA_OF_ASC_NODE":332.0651,"ARG_OF_PERICENTER":78.2032,"MEAN_ANOMALY":281.9395,"EPHEMERIS_TYPE":0,"CLASSIFICATION_TYPE":"U","NORAD_CAT_ID":43078,"ELEMENT_SET_NO":999,"REV_AT_EPOCH":43102,"BSTAR":0.00013580014,"MEAN_MOTION_DOT":4.0e-6,"MEAN_MOTION_DDOT":0},{"OBJECT_NAME":"CZ-6A DEB","OBJECT_ID":"2022-151BF","EPOCH":"2026-03-09T02:14:11.342976","MEAN_MOTION":14.30187586,"ECCENTRICITY":0.0023149,"INCLINATION":98.8849,"RA_OF_ASC_NODE":116.4248,"ARG_OF_PERICENTER":72.4394,"MEAN_ANOMALY":287.9314,"EPHEMERIS_TYPE":0,"CLASSIFICATION_TYPE":"U","NORAD_CAT_ID":54312,"ELEMENT_SET_NO":999,"REV_AT_EPOCH":17220,"BSTAR":0.0012157763,"MEAN_MOTION_DOT":3.112e-5,"MEAN_MOTION_DDOT":0}]
